[{"DiffsionPartnerId":1,"Siret":22372155238129,"Address":"Anderson","AddressNumber":"6","Phone":"8269010053","DiffsionPartnerName":"Koelpin, Olson and Davis","PostCode":"57-340","City":"Duszniki-Zdrój"},
{"DiffsionPartnerId":2,"Siret":85741497151176,"Address":"New Castle","AddressNumber":"805","Phone":"5571120517","DiffsionPartnerName":"Wilderman, Weimann and Kautzer","PostCode":90000,"City":"Cerenti"},
{"DiffsionPartnerId":3,"Siret":23635107980153,"Address":"Towne","AddressNumber":"227","Phone":"8804800875","DiffsionPartnerName":"Price-Prosacco","PostCode":90000,"City":"Jiguaní"},
{"DiffsionPartnerId":4,"Siret":80929638535230,"Address":"Hayes","AddressNumber":"158","Phone":"3573901095","DiffsionPartnerName":"Mitchell Inc","PostCode":"696 81","City":"Bzenec"},
{"DiffsionPartnerId":5,"Siret":92725398062764,"Address":"8th","AddressNumber":"9","Phone":"7907855497","DiffsionPartnerName":"Gislason and Sons","PostCode":"4785-035","City":"Outeirô"},
{"DiffsionPartnerId":6,"Siret":47643937577174,"Address":"Waxwing","AddressNumber":"6829","Phone":"7624089345","DiffsionPartnerName":"Frami LLC","PostCode":90000,"City":"Suileng"},
{"DiffsionPartnerId":7,"Siret":44747953905926,"Address":"Valley Edge","AddressNumber":"5246","Phone":"7495996802","DiffsionPartnerName":"Beahan and Sons","PostCode":90000,"City":"Haixing"},
{"DiffsionPartnerId":8,"Siret":87080312144677,"Address":"Harper","AddressNumber":"4","Phone":"6036718207","DiffsionPartnerName":"Reilly, Okuneva and Kihn","PostCode":90000,"City":"Kampunganyar"},
{"DiffsionPartnerId":9,"Siret":88863592845015,"Address":"Ohio","AddressNumber":"6","Phone":"4162515561","DiffsionPartnerName":"Kovacek, Pollich and Brakus","PostCode":"142817","City":"Zyuzino"},
{"DiffsionPartnerId":10,"Siret":99612667747004,"Address":"Chinook","AddressNumber":"25","Phone":"3946677734","DiffsionPartnerName":"Medhurst-Lueilwitz","PostCode":90000,"City":"Mudon"},
{"DiffsionPartnerId":11,"Siret":90546533339349,"Address":"Loomis","AddressNumber":"7539","Phone":"2373218760","DiffsionPartnerName":"Waelchi-Tillman","PostCode":90000,"City":"Belang"},
{"DiffsionPartnerId":12,"Siret":83846774961327,"Address":"Northland","AddressNumber":"4","Phone":"2584542597","DiffsionPartnerName":"Beatty-Erdman","PostCode":90000,"City":"Nueva Manoa"},
{"DiffsionPartnerId":13,"Siret":42364386383686,"Address":"Trailsway","AddressNumber":"538","Phone":"8149359588","DiffsionPartnerName":"Batz, Lang and Schamberger","PostCode":"2640-394","City":"Mafra"},
{"DiffsionPartnerId":14,"Siret":77730905412210,"Address":"Rigney","AddressNumber":"63054","Phone":"6753452469","DiffsionPartnerName":"Heller-Bogisich","PostCode":53000,"City":"Longxian Chengguanzhen"},
{"DiffsionPartnerId":15,"Siret":62936036417614,"Address":"West","AddressNumber":"5","Phone":"8138626392","DiffsionPartnerName":"Sauer, Rogahn and Reynolds","PostCode":"07006","City":"Santa Catarina Ixtahuacán"},
{"DiffsionPartnerId":16,"Siret":61123415724527,"Address":"Mccormick","AddressNumber":"8","Phone":"1636210287","DiffsionPartnerName":"Kreiger and Sons","PostCode":"623851","City":"Lesnoy"},
{"DiffsionPartnerId":17,"Siret":71905546599370,"Address":"Spohn","AddressNumber":"244","Phone":"1868683128","DiffsionPartnerName":"Haley Inc","PostCode":90000,"City":"Meitang"},
{"DiffsionPartnerId":18,"Siret":15630489239636,"Address":"Texas","AddressNumber":"16108","Phone":"8766562766","DiffsionPartnerName":"Fritsch, Waters and Jerde","PostCode":90000,"City":"Tianxin"},
{"DiffsionPartnerId":19,"Siret":97474819696071,"Address":"Kinsman","AddressNumber":"6607","Phone":"6748352435","DiffsionPartnerName":"Weber, Rempel and Connelly","PostCode":90000,"City":"Farafangana"},
{"DiffsionPartnerId":20,"Siret":37121515247418,"Address":"Fairview","AddressNumber":"818","Phone":"9115374342","DiffsionPartnerName":"Rempel Inc","PostCode":"2310","City":"Anao"},
{"DiffsionPartnerId":21,"Siret":58826385968416,"Address":"South","AddressNumber":"15","Phone":"7678370924","DiffsionPartnerName":"Schuppe, Spencer and Thiel","PostCode":90000,"City":"Wuxiang"},
{"DiffsionPartnerId":22,"Siret":77350226133259,"Address":"Ramsey","AddressNumber":"0","Phone":"3425275672","DiffsionPartnerName":"Oberbrunner-Sanford","PostCode":90000,"City":"Finote Selam"},
{"DiffsionPartnerId":23,"Siret":34093047562343,"Address":"Londonderry","AddressNumber":"499","Phone":"2018525641","DiffsionPartnerName":"Blick, Lindgren and Kertzmann","PostCode":90000,"City":"Tandahimba"},
{"DiffsionPartnerId":24,"Siret":75186106385926,"Address":"Independence","AddressNumber":"5","Phone":"8244000441","DiffsionPartnerName":"Flatley-Powlowski","PostCode":90000,"City":"Liutangting"},
{"DiffsionPartnerId":25,"Siret":17567212837280,"Address":"Buhler","AddressNumber":"4","Phone":"5791794084","DiffsionPartnerName":"Ward-Torphy","PostCode":90000,"City":"Dayan"},
{"DiffsionPartnerId":26,"Siret":77458566441058,"Address":"Crest Line","AddressNumber":"37737","Phone":"5859632722","DiffsionPartnerName":"Schaefer, Reichert and Kutch","PostCode":"134548","City":"Morales"},
{"DiffsionPartnerId":27,"Siret":41135989759851,"Address":"Vidon","AddressNumber":"5324","Phone":"3207855543","DiffsionPartnerName":"Ruecker and Sons","PostCode":90000,"City":"Kavār"},
{"DiffsionPartnerId":28,"Siret":42982553793766,"Address":"Fair Oaks","AddressNumber":"72","Phone":"7282824438","DiffsionPartnerName":"Williamson LLC","PostCode":"385123","City":"Yelizavetinskaya"},
{"DiffsionPartnerId":29,"Siret":44042425181203,"Address":"Crownhardt","AddressNumber":"2","Phone":"4661176808","DiffsionPartnerName":"Runte, Stehr and Lowe","PostCode":"5711","City":"Harrison"},
{"DiffsionPartnerId":30,"Siret":32237379083943,"Address":"Wayridge","AddressNumber":"07","Phone":"5113376178","DiffsionPartnerName":"Walsh Inc","PostCode":90000,"City":"Pasarkolot"},
{"DiffsionPartnerId":31,"Siret":72695018366774,"Address":"Sullivan","AddressNumber":"25447","Phone":"4838277689","DiffsionPartnerName":"Corwin-Langworth","PostCode":90000,"City":"Geyuan"},
{"DiffsionPartnerId":32,"Siret":83714285642126,"Address":"Schlimgen","AddressNumber":"09","Phone":"4853071001","DiffsionPartnerName":"Kirlin LLC","PostCode":90000,"City":"Majunying"},
{"DiffsionPartnerId":33,"Siret":93490665012562,"Address":"Schlimgen","AddressNumber":"80563","Phone":"2977171241","DiffsionPartnerName":"Stoltenberg Inc","PostCode":"85200","City":"Zhob"},
{"DiffsionPartnerId":34,"Siret":64928664650659,"Address":"Old Shore","AddressNumber":"55","Phone":"7716993956","DiffsionPartnerName":"Christiansen, Frami and Hackett","PostCode":"2425-823","City":"Conqueiros"},
{"DiffsionPartnerId":35,"Siret":84329885040298,"Address":"Washington","AddressNumber":"630","Phone":"3296530176","DiffsionPartnerName":"Lind-Howell","PostCode":90000,"City":"Kindu"},
{"DiffsionPartnerId":36,"Siret":25129461530608,"Address":"Corscot","AddressNumber":"79342","Phone":"7611610047","DiffsionPartnerName":"Hilpert and Sons","PostCode":90000,"City":"Fangzheng"},
{"DiffsionPartnerId":37,"Siret":75745121554077,"Address":"Hazelcrest","AddressNumber":"25","Phone":"7017336752","DiffsionPartnerName":"Hettinger Group","PostCode":"140168","City":"Troitskoye"},
{"DiffsionPartnerId":38,"Siret":28808310762873,"Address":"Fuller","AddressNumber":"294","Phone":"3617354351","DiffsionPartnerName":"Keebler-Purdy","PostCode":90000,"City":"Tushi"},
{"DiffsionPartnerId":39,"Siret":75476582005388,"Address":"Oak","AddressNumber":"2120","Phone":"5248524003","DiffsionPartnerName":"Leannon-Larkin","PostCode":90000,"City":"Gambēla"},
{"DiffsionPartnerId":40,"Siret":31471403797368,"Address":"Meadow Vale","AddressNumber":"0624","Phone":"3078683144","DiffsionPartnerName":"Lockman-Grant","PostCode":90000,"City":"Yangpu"},
{"DiffsionPartnerId":41,"Siret":83755190538377,"Address":"Caliangt","AddressNumber":"89938","Phone":"8566434123","DiffsionPartnerName":"Schamberger, West and Rolfson","PostCode":"71160","City":"Bo Phloi"},
{"DiffsionPartnerId":42,"Siret":51318262675001,"Address":"Porter","AddressNumber":"711","Phone":"1953063676","DiffsionPartnerName":"Oberbrunner Inc","PostCode":"06008","City":"Chiquimulilla"},
{"DiffsionPartnerId":43,"Siret":18033388314687,"Address":"Jenifer","AddressNumber":"27334","Phone":"5696934990","DiffsionPartnerName":"Sipes, Altenwerth and Hirthe","PostCode":90000,"City":"Fengyang"},
{"DiffsionPartnerId":44,"Siret":46015165471409,"Address":"Holy Cross","AddressNumber":"60092","Phone":"8542770231","DiffsionPartnerName":"Frami, Funk and Jast","PostCode":"24-123","City":"Janowiec"},
{"DiffsionPartnerId":45,"Siret":39968793479105,"Address":"Randy","AddressNumber":"5620","Phone":"6056681278","DiffsionPartnerName":"Hagenes-Schimmel","PostCode":"21-007","City":"Mełgiew"},
{"DiffsionPartnerId":46,"Siret":35960972859833,"Address":"Menomonie","AddressNumber":"44","Phone":"9197455121","DiffsionPartnerName":"Hettinger Group","PostCode":90000,"City":"‘Abbāsābād"},
{"DiffsionPartnerId":47,"Siret":40373276800435,"Address":"Logan","AddressNumber":"70478","Phone":"8192829826","DiffsionPartnerName":"Lueilwitz, McLaughlin and Bruen","PostCode":"94704 CEDEX","City":"Maisons-Alfort"},
{"DiffsionPartnerId":48,"Siret":54781435504128,"Address":"Dorton","AddressNumber":"475","Phone":"9067681263","DiffsionPartnerName":"Graham, Mohr and Pfeffer","PostCode":90000,"City":"Sumberdangdang"},
{"DiffsionPartnerId":49,"Siret":93829911955965,"Address":"Nobel","AddressNumber":"4","Phone":"4169239527","DiffsionPartnerName":"Rutherford-Krajcik","PostCode":"26-301","City":"Opoczno"},
{"DiffsionPartnerId":50,"Siret":96836980329143,"Address":"Talisman","AddressNumber":"38909","Phone":"7217821777","DiffsionPartnerName":"Zieme LLC","PostCode":90000,"City":"Kinzan"},
{"DiffsionPartnerId":51,"Siret":16339460127786,"Address":"Comanche","AddressNumber":"8036","Phone":"6135812280","DiffsionPartnerName":"Dickens, Cummerata and Schimmel","PostCode":90000,"City":"Dusun Desa Bunter"},
{"DiffsionPartnerId":52,"Siret":99594932119475,"Address":"Cherokee","AddressNumber":"5932","Phone":"9923586434","DiffsionPartnerName":"Lehner-Balistreri","PostCode":90000,"City":"Gyangqai"},
{"DiffsionPartnerId":53,"Siret":67548897850691,"Address":"Vera","AddressNumber":"8","Phone":"9923056576","DiffsionPartnerName":"Casper, Flatley and Koelpin","PostCode":90000,"City":"Shangjiangxu"},
{"DiffsionPartnerId":54,"Siret":16411319652165,"Address":"Eastlawn","AddressNumber":"45218","Phone":"7617343168","DiffsionPartnerName":"Baumbach-O'Hara","PostCode":"08004","City":"San Andrés Xecul"},
{"DiffsionPartnerId":55,"Siret":38771996536369,"Address":"Lake View","AddressNumber":"08226","Phone":"6864046330","DiffsionPartnerName":"Hintz-Zboncak","PostCode":"10118","City":"Nagua"},
{"DiffsionPartnerId":56,"Siret":50880988814712,"Address":"Fieldstone","AddressNumber":"0","Phone":"6156186498","DiffsionPartnerName":"Daniel Group","PostCode":90000,"City":"Zhangfeng"},
{"DiffsionPartnerId":57,"Siret":32127532023512,"Address":"Jackson","AddressNumber":"544","Phone":"3395294022","DiffsionPartnerName":"Gibson Inc","PostCode":90000,"City":"Vatutine"},
{"DiffsionPartnerId":58,"Siret":32272396904594,"Address":"Sunnyside","AddressNumber":"018","Phone":"6835950077","DiffsionPartnerName":"Lubowitz LLC","PostCode":"59-305","City":"Rudna"},
{"DiffsionPartnerId":59,"Siret":88079636064932,"Address":"Magdeline","AddressNumber":"712","Phone":"6196810690","DiffsionPartnerName":"Block-Weimann","PostCode":90000,"City":"Nha Trang"},
{"DiffsionPartnerId":60,"Siret":25728475929679,"Address":"Pepper Wood","AddressNumber":"2","Phone":"7724800237","DiffsionPartnerName":"Braun-Nienow","PostCode":"94504 CEDEX","City":"Champigny-sur-Marne"},
{"DiffsionPartnerId":61,"Siret":24250930759706,"Address":"Kensington","AddressNumber":"24","Phone":"9542193886","DiffsionPartnerName":"McDermott Inc","PostCode":"51215","City":"Kastav"},
{"DiffsionPartnerId":62,"Siret":11838225436370,"Address":"Burning Wood","AddressNumber":"07","Phone":"3345568044","DiffsionPartnerName":"Abbott-Willms","PostCode":90000,"City":"Muara Siberut"},
{"DiffsionPartnerId":63,"Siret":28981902123288,"Address":"Cardinal","AddressNumber":"869","Phone":"6174546936","DiffsionPartnerName":"Effertz Group","PostCode":"02298","City":"Boston"},
{"DiffsionPartnerId":64,"Siret":27645753583541,"Address":"Muir","AddressNumber":"40850","Phone":"2811802499","DiffsionPartnerName":"Kihn, Ledner and Padberg","PostCode":"77095","City":"Houston"},
{"DiffsionPartnerId":65,"Siret":99764662916755,"Address":"Messerschmidt","AddressNumber":"11","Phone":"8578124247","DiffsionPartnerName":"Wolf Inc","PostCode":"427265","City":"Uva"},
{"DiffsionPartnerId":66,"Siret":11809504752880,"Address":"Dapin","AddressNumber":"33491","Phone":"5495754894","DiffsionPartnerName":"Kulas-Botsford","PostCode":90000,"City":"Katsina"},
{"DiffsionPartnerId":67,"Siret":14966051238774,"Address":"Muir","AddressNumber":"182","Phone":"1539380229","DiffsionPartnerName":"Eichmann, Rippin and Schmidt","PostCode":"43131","City":"San Antonio"},
{"DiffsionPartnerId":68,"Siret":93300999262127,"Address":"Kennedy","AddressNumber":"4","Phone":"3636372546","DiffsionPartnerName":"Hagenes-Jast","PostCode":90000,"City":"Lengkeng"},
{"DiffsionPartnerId":69,"Siret":63567497989322,"Address":"Twin Pines","AddressNumber":"85996","Phone":"5786712736","DiffsionPartnerName":"Pfannerstill, Howe and Schumm","PostCode":90000,"City":"Changtan"},
{"DiffsionPartnerId":70,"Siret":18144195746783,"Address":"Jenifer","AddressNumber":"901","Phone":"4986121172","DiffsionPartnerName":"Eichmann LLC","PostCode":"99840-000","City":"Sananduva"},
{"DiffsionPartnerId":71,"Siret":92901355030599,"Address":"Rigney","AddressNumber":"518","Phone":"4553436304","DiffsionPartnerName":"Graham, Terry and Feest","PostCode":90000,"City":"Yanglin"},
{"DiffsionPartnerId":72,"Siret":88062319133579,"Address":"Morningstar","AddressNumber":"04","Phone":"1108420878","DiffsionPartnerName":"Hintz-Herman","PostCode":"86801","City":"Pyhäsalmi"},
{"DiffsionPartnerId":73,"Siret":16155173971871,"Address":"Anniversary","AddressNumber":"17","Phone":"9451626412","DiffsionPartnerName":"Koepp-Rolfson","PostCode":90000,"City":"Jingdezhen"},
{"DiffsionPartnerId":74,"Siret":15685505252897,"Address":"Anniversary","AddressNumber":"44","Phone":"7301942213","DiffsionPartnerName":"McLaughlin-Nitzsche","PostCode":"3261","City":"Colonia Elía"},
{"DiffsionPartnerId":75,"Siret":14057443534496,"Address":"Summit","AddressNumber":"9","Phone":"7326180558","DiffsionPartnerName":"Anderson LLC","PostCode":"32-447","City":"Borzęta"},
{"DiffsionPartnerId":76,"Siret":92376171831803,"Address":"Hazelcrest","AddressNumber":"38","Phone":"4839076686","DiffsionPartnerName":"Rolfson LLC","PostCode":"456143","City":"Ufa"},
{"DiffsionPartnerId":77,"Siret":67438110232495,"Address":"Ridgeway","AddressNumber":"57437","Phone":"9341718398","DiffsionPartnerName":"Koch, Heller and Ortiz","PostCode":"4332","City":"San Casimiro"},
{"DiffsionPartnerId":78,"Siret":11553898936797,"Address":"Lien","AddressNumber":"749","Phone":"4622703249","DiffsionPartnerName":"Padberg-Marks","PostCode":"688000","City":"Palana"},
{"DiffsionPartnerId":79,"Siret":87808024779457,"Address":"Caliangt","AddressNumber":"04312","Phone":"8886576065","DiffsionPartnerName":"Lemke, Kunze and Williamson","PostCode":"10807","City":"Purral"},
{"DiffsionPartnerId":80,"Siret":89667910267616,"Address":"Kingsford","AddressNumber":"39","Phone":"8636094859","DiffsionPartnerName":"Cremin and Sons","PostCode":90000,"City":"Longjing"},
{"DiffsionPartnerId":81,"Siret":33881445743717,"Address":"Rigney","AddressNumber":"82237","Phone":"8063265735","DiffsionPartnerName":"Barton, Quigley and Wolff","PostCode":90000,"City":"Kujang-ŭp"},
{"DiffsionPartnerId":82,"Siret":41311374104689,"Address":"Lerdahl","AddressNumber":"6","Phone":"8059353150","DiffsionPartnerName":"Lemke-Dickens","PostCode":90000,"City":"Xinhua"},
{"DiffsionPartnerId":83,"Siret":35244073188769,"Address":"Montana","AddressNumber":"8","Phone":"2538796122","DiffsionPartnerName":"Brown-Hirthe","PostCode":"98516","City":"Olympia"},
{"DiffsionPartnerId":84,"Siret":61827275303178,"Address":"Union","AddressNumber":"2","Phone":"3527058015","DiffsionPartnerName":"McClure-Kihn","PostCode":90000,"City":"Jembangan"},
{"DiffsionPartnerId":85,"Siret":46877574431492,"Address":"Merry","AddressNumber":"0294","Phone":"9897280494","DiffsionPartnerName":"Terry, Satterfield and Wilderman","PostCode":"1114","City":"Lourdes"},
{"DiffsionPartnerId":86,"Siret":22401487345361,"Address":"Garrison","AddressNumber":"103","Phone":"9444001406","DiffsionPartnerName":"Upton, Hauck and Reilly","PostCode":90000,"City":"Jingdu"},
{"DiffsionPartnerId":87,"Siret":95697391087068,"Address":"8th","AddressNumber":"90731","Phone":"7266652461","DiffsionPartnerName":"Russel-Spinka","PostCode":90000,"City":"Araulí"},
{"DiffsionPartnerId":88,"Siret":81335045043063,"Address":"Delladonna","AddressNumber":"470","Phone":"4128506569","DiffsionPartnerName":"Davis Inc","PostCode":"44-341","City":"Gołkowice"},
{"DiffsionPartnerId":89,"Siret":29387887522601,"Address":"Darwin","AddressNumber":"74","Phone":"1694629235","DiffsionPartnerName":"Kohler-Gleason","PostCode":90000,"City":"Gezan"},
{"DiffsionPartnerId":90,"Siret":59206802965214,"Address":"Graedel","AddressNumber":"1750","Phone":"4055490332","DiffsionPartnerName":"Wiegand LLC","PostCode":"696 65","City":"Petrov"},
{"DiffsionPartnerId":91,"Siret":19164605871377,"Address":"Mayer","AddressNumber":"049","Phone":"8152681120","DiffsionPartnerName":"Casper-Nicolas","PostCode":"140482","City":"Rassvet"},
{"DiffsionPartnerId":92,"Siret":98121683054013,"Address":"Arrowood","AddressNumber":"2064","Phone":"9082841459","DiffsionPartnerName":"Krajcik and Sons","PostCode":90000,"City":"Palangkaraya"},
{"DiffsionPartnerId":93,"Siret":81141031667326,"Address":"Knutson","AddressNumber":"83","Phone":"5421170771","DiffsionPartnerName":"Skiles-Davis","PostCode":"152047","City":"Tópaga"},
{"DiffsionPartnerId":94,"Siret":99639522498546,"Address":"Vera","AddressNumber":"95","Phone":"6405811906","DiffsionPartnerName":"Jast-Botsford","PostCode":"196627","City":"Pushkin"},
{"DiffsionPartnerId":95,"Siret":33096139056309,"Address":"Scott","AddressNumber":"4418","Phone":"6464559856","DiffsionPartnerName":"Terry-Lowe","PostCode":90000,"City":"Huanglong"},
{"DiffsionPartnerId":96,"Siret":89417494335016,"Address":"Hanson","AddressNumber":"410","Phone":"8841712367","DiffsionPartnerName":"Roberts and Sons","PostCode":90000,"City":"Khakhea"},
{"DiffsionPartnerId":97,"Siret":27285745247580,"Address":"Mallard","AddressNumber":"30012","Phone":"4103438659","DiffsionPartnerName":"Mann-Lind","PostCode":90000,"City":"Radès"},
{"DiffsionPartnerId":98,"Siret":66055542602802,"Address":"Superior","AddressNumber":"22","Phone":"4181867989","DiffsionPartnerName":"Erdman, Larson and Stanton","PostCode":90000,"City":"Huayang"},
{"DiffsionPartnerId":99,"Siret":92632625269613,"Address":"Mosinee","AddressNumber":"460","Phone":"6586602975","DiffsionPartnerName":"Stamm, Schultz and Boehm","PostCode":90000,"City":"Beishan"},
{"DiffsionPartnerId":100,"Siret":32868897514047,"Address":"Messerschmidt","AddressNumber":"695","Phone":"9993722742","DiffsionPartnerName":"Adams Inc","PostCode":"414 71","City":"Göteborg"},
{"DiffsionPartnerId":101,"Siret":79104571884368,"Address":"Fairview","AddressNumber":"95","Phone":"6999240595","DiffsionPartnerName":"Steuber, Skiles and Johnson","PostCode":90000,"City":"Pakemitan"},
{"DiffsionPartnerId":102,"Siret":69627800969835,"Address":"Daystar","AddressNumber":"143","Phone":"2719873380","DiffsionPartnerName":"Towne Inc","PostCode":"6271","City":"Italó"},
{"DiffsionPartnerId":103,"Siret":98787161267113,"Address":"Pennsylvania","AddressNumber":"7660","Phone":"1097244388","DiffsionPartnerName":"Feest, Langosh and Hagenes","PostCode":90000,"City":"Funan Chengguanzhen"},
{"DiffsionPartnerId":104,"Siret":74188085034888,"Address":"Redwing","AddressNumber":"3432","Phone":"8223066935","DiffsionPartnerName":"Farrell, McKenzie and Dickens","PostCode":"4500","City":"Barayong"},
{"DiffsionPartnerId":105,"Siret":25038940604724,"Address":"Butterfield","AddressNumber":"6","Phone":"9085982675","DiffsionPartnerName":"Hirthe, Ernser and Labadie","PostCode":"6604","City":"Bontoc"},
{"DiffsionPartnerId":106,"Siret":22632325119144,"Address":"Tennessee","AddressNumber":"5","Phone":"2012051237","DiffsionPartnerName":"Bayer Inc","PostCode":"87-603","City":"Wielgie"},
{"DiffsionPartnerId":107,"Siret":21497009506945,"Address":"Coleman","AddressNumber":"27","Phone":"6781522458","DiffsionPartnerName":"Goldner, Rau and Johns","PostCode":"981-4305","City":"Miyata"},
{"DiffsionPartnerId":108,"Siret":70741394731942,"Address":"Logan","AddressNumber":"86","Phone":"8175334070","DiffsionPartnerName":"Murazik, Prohaska and Jaskolski","PostCode":"2254","City":"Trnovska Vas"},
{"DiffsionPartnerId":109,"Siret":60050986486295,"Address":"Dennis","AddressNumber":"75134","Phone":"1984361101","DiffsionPartnerName":"Wuckert, Auer and Koch","PostCode":"P51","City":"Askeaton"},
{"DiffsionPartnerId":110,"Siret":29363930367838,"Address":"Nevada","AddressNumber":"767","Phone":"7361954035","DiffsionPartnerName":"Funk Inc","PostCode":90000,"City":"Gjirokastër"},
{"DiffsionPartnerId":111,"Siret":75661408763728,"Address":"Namekagon","AddressNumber":"424","Phone":"5877353668","DiffsionPartnerName":"Dickens, Fahey and Kautzer","PostCode":"2420-005","City":"Arrabal"},
{"DiffsionPartnerId":112,"Siret":35908900654698,"Address":"Eagan","AddressNumber":"8894","Phone":"7741462598","DiffsionPartnerName":"Mosciski Inc","PostCode":90000,"City":"Sinanju"},
{"DiffsionPartnerId":113,"Siret":73715660368022,"Address":"Valley Edge","AddressNumber":"0019","Phone":"2794258774","DiffsionPartnerName":"Sawayn Inc","PostCode":"6290-311","City":"Gouveia"},
{"DiffsionPartnerId":114,"Siret":38220906473157,"Address":"Stuart","AddressNumber":"38","Phone":"1541646551","DiffsionPartnerName":"Goodwin, Schaefer and Kohler","PostCode":"22920","City":"Brändö"},
{"DiffsionPartnerId":115,"Siret":33552801707228,"Address":"Gina","AddressNumber":"2","Phone":"1341066411","DiffsionPartnerName":"Windler LLC","PostCode":90000,"City":"Foso"},
{"DiffsionPartnerId":116,"Siret":28072680211640,"Address":"Sloan","AddressNumber":"63","Phone":"5479289684","DiffsionPartnerName":"Klein, Mohr and Tremblay","PostCode":90000,"City":"Turpo"},
{"DiffsionPartnerId":117,"Siret":40195062285433,"Address":"Golf Course","AddressNumber":"9439","Phone":"5757312948","DiffsionPartnerName":"Veum LLC","PostCode":90000,"City":"‘Ibwayn"},
{"DiffsionPartnerId":118,"Siret":36135612296637,"Address":"Dottie","AddressNumber":"392","Phone":"7486799384","DiffsionPartnerName":"Abshire, Rosenbaum and Will","PostCode":90000,"City":"Labuhan"},
{"DiffsionPartnerId":119,"Siret":28371070348653,"Address":"Anzinger","AddressNumber":"4041","Phone":"8739105950","DiffsionPartnerName":"Johnson and Sons","PostCode":90000,"City":"Port-au-Prince"},
{"DiffsionPartnerId":120,"Siret":41105361316970,"Address":"Trailsway","AddressNumber":"65740","Phone":"7357951637","DiffsionPartnerName":"Orn Group","PostCode":90000,"City":"Daluo"},
{"DiffsionPartnerId":121,"Siret":97430318998825,"Address":"Arrowood","AddressNumber":"6653","Phone":"1836637861","DiffsionPartnerName":"Daniel LLC","PostCode":"613930","City":"Podosinovets"},
{"DiffsionPartnerId":122,"Siret":13326475447544,"Address":"Mitchell","AddressNumber":"0","Phone":"3629966821","DiffsionPartnerName":"Brown-Leuschke","PostCode":90000,"City":"Jingmen"},
{"DiffsionPartnerId":123,"Siret":47070775316706,"Address":"Old Shore","AddressNumber":"629","Phone":"7838977394","DiffsionPartnerName":"Bergnaum LLC","PostCode":"618340","City":"Yayva"},
{"DiffsionPartnerId":124,"Siret":43182955950310,"Address":"South","AddressNumber":"6","Phone":"9817798674","DiffsionPartnerName":"Schmeler-Frami","PostCode":"1218","City":"Komenda"},
{"DiffsionPartnerId":125,"Siret":18690505052268,"Address":"Crest Line","AddressNumber":"62","Phone":"1481080399","DiffsionPartnerName":"Haley-Beahan","PostCode":90000,"City":"Daruoyan"},
{"DiffsionPartnerId":126,"Siret":62198996802728,"Address":"Upham","AddressNumber":"7","Phone":"6257608477","DiffsionPartnerName":"Carroll, Bergnaum and Stehr","PostCode":90000,"City":"Toukh"},
{"DiffsionPartnerId":127,"Siret":43430591980130,"Address":"Kropf","AddressNumber":"03901","Phone":"5989187684","DiffsionPartnerName":"Abbott Inc","PostCode":"1109","City":"Casisang"},
{"DiffsionPartnerId":128,"Siret":14594399219388,"Address":"Warbler","AddressNumber":"34","Phone":"5052697815","DiffsionPartnerName":"D'Amore and Sons","PostCode":"696 61","City":"Vnorovy"},
{"DiffsionPartnerId":129,"Siret":19634265589314,"Address":"Lien","AddressNumber":"19765","Phone":"6974529603","DiffsionPartnerName":"Kirlin, Schamberger and Franecki","PostCode":90000,"City":"Pakapasan Girang"},
{"DiffsionPartnerId":130,"Siret":14085355036530,"Address":"Lien","AddressNumber":"2","Phone":"3434315810","DiffsionPartnerName":"Larkin, Sipes and Koch","PostCode":90000,"City":"Rentian"},
{"DiffsionPartnerId":131,"Siret":20269898527848,"Address":"Arkansas","AddressNumber":"2","Phone":"4481892755","DiffsionPartnerName":"Herzog, Huel and O'Hara","PostCode":90000,"City":"Yonghe"},
{"DiffsionPartnerId":132,"Siret":46254885703411,"Address":"Knutson","AddressNumber":"6","Phone":"8944529882","DiffsionPartnerName":"Klein Group","PostCode":90000,"City":"Xinghuo"},
{"DiffsionPartnerId":133,"Siret":20864207652801,"Address":"Maryland","AddressNumber":"1926","Phone":"9614509408","DiffsionPartnerName":"Stamm-Kunde","PostCode":"60200","City":"Kuliyapitiya"},
{"DiffsionPartnerId":134,"Siret":47108420810107,"Address":"Bobwhite","AddressNumber":"3","Phone":"2823844417","DiffsionPartnerName":"Anderson-Schamberger","PostCode":90000,"City":"Ankola"},
{"DiffsionPartnerId":135,"Siret":57041309787843,"Address":"Pawling","AddressNumber":"551","Phone":"7828540552","DiffsionPartnerName":"Nitzsche-Considine","PostCode":90000,"City":"Verkhovyna"},
{"DiffsionPartnerId":136,"Siret":10081998400851,"Address":"Londonderry","AddressNumber":"2843","Phone":"8445006168","DiffsionPartnerName":"Kihn-Boyle","PostCode":90000,"City":"Yuhe"},
{"DiffsionPartnerId":137,"Siret":64343087058302,"Address":"Scott","AddressNumber":"2059","Phone":"8837453536","DiffsionPartnerName":"Stroman-Nicolas","PostCode":"2446","City":"Cabalaoangan"},
{"DiffsionPartnerId":138,"Siret":19528939349613,"Address":"Kings","AddressNumber":"90","Phone":"8084838926","DiffsionPartnerName":"Anderson-Kihn","PostCode":90000,"City":"Agía Varvára"},
{"DiffsionPartnerId":139,"Siret":29364296698538,"Address":"Melody","AddressNumber":"8793","Phone":"1465357581","DiffsionPartnerName":"Keebler, Morissette and Thompson","PostCode":"433710","City":"Pavlovka"},
{"DiffsionPartnerId":140,"Siret":91353468694079,"Address":"Shelley","AddressNumber":"9","Phone":"4958753099","DiffsionPartnerName":"Shields-Batz","PostCode":90000,"City":"Nganane"},
{"DiffsionPartnerId":141,"Siret":37315314375440,"Address":"Clarendon","AddressNumber":"910","Phone":"6869526027","DiffsionPartnerName":"Kris, Rogahn and Schneider","PostCode":90000,"City":"Jinjiang"},
{"DiffsionPartnerId":142,"Siret":40047183225224,"Address":"Ronald Regan","AddressNumber":"86","Phone":"1806692682","DiffsionPartnerName":"Lehner, Raynor and Dibbert","PostCode":90000,"City":"Yueyahe"},
{"DiffsionPartnerId":143,"Siret":12507971359219,"Address":"Lien","AddressNumber":"91606","Phone":"7327039958","DiffsionPartnerName":"Heathcote, Denesik and Kling","PostCode":90000,"City":"Kalān Deh"},
{"DiffsionPartnerId":144,"Siret":24359686490450,"Address":"Maple","AddressNumber":"94","Phone":"5291927902","DiffsionPartnerName":"Kulas-Fay","PostCode":"01054","City":"Palencia"},
{"DiffsionPartnerId":145,"Siret":43082001203511,"Address":"Brown","AddressNumber":"386","Phone":"6099089172","DiffsionPartnerName":"Brown, Koch and Heaney","PostCode":90000,"City":"Zall-Dardhë"},
{"DiffsionPartnerId":146,"Siret":84792106496955,"Address":"Donald","AddressNumber":"2428","Phone":"6289921633","DiffsionPartnerName":"Shields and Sons","PostCode":"36-060","City":"Głogów Małopolski"},
{"DiffsionPartnerId":147,"Siret":39106460433152,"Address":"Pleasure","AddressNumber":"5312","Phone":"6089057151","DiffsionPartnerName":"Jast LLC","PostCode":90000,"City":"Hanlin"},
{"DiffsionPartnerId":148,"Siret":33463013566081,"Address":"Red Cloud","AddressNumber":"14","Phone":"4612983697","DiffsionPartnerName":"Hagenes, Tillman and Schultz","PostCode":"21001","City":"Quesada"},
{"DiffsionPartnerId":149,"Siret":82640355500305,"Address":"Parkside","AddressNumber":"00140","Phone":"6136045666","DiffsionPartnerName":"Heaney-Orn","PostCode":90000,"City":"Wairinding"},
{"DiffsionPartnerId":150,"Siret":28178310469153,"Address":"Bowman","AddressNumber":"0","Phone":"1371064398","DiffsionPartnerName":"Glover LLC","PostCode":90000,"City":"Shitang"},
{"DiffsionPartnerId":151,"Siret":81739038119593,"Address":"Lerdahl","AddressNumber":"5173","Phone":"4993396013","DiffsionPartnerName":"Ritchie-Bosco","PostCode":90000,"City":"Jiulong"},
{"DiffsionPartnerId":152,"Siret":60246355106630,"Address":"Ruskin","AddressNumber":"20","Phone":"4466145800","DiffsionPartnerName":"Gleason-Baumbach","PostCode":90000,"City":"Matamey"},
{"DiffsionPartnerId":153,"Siret":19350161678209,"Address":"Maryland","AddressNumber":"329","Phone":"4433026171","DiffsionPartnerName":"Haley, Fay and Hahn","PostCode":90000,"City":"Cikuning"},
{"DiffsionPartnerId":154,"Siret":17266544538993,"Address":"Almo","AddressNumber":"749","Phone":"2613418397","DiffsionPartnerName":"Rau-Russel","PostCode":90000,"City":"Konggar"},
{"DiffsionPartnerId":155,"Siret":64762831529482,"Address":"Stephen","AddressNumber":"388","Phone":"6573947875","DiffsionPartnerName":"Donnelly and Sons","PostCode":90000,"City":"Mykolayiv"},
{"DiffsionPartnerId":156,"Siret":20675321732008,"Address":"American Ash","AddressNumber":"85","Phone":"8911624361","DiffsionPartnerName":"Farrell and Sons","PostCode":90000,"City":"Ningtang"},
{"DiffsionPartnerId":157,"Siret":85641236952055,"Address":"Fuller","AddressNumber":"3","Phone":"2375618279","DiffsionPartnerName":"Douglas Group","PostCode":"8029","City":"Zwolle"},
{"DiffsionPartnerId":158,"Siret":74569078413895,"Address":"Karstens","AddressNumber":"7049","Phone":"6123773791","DiffsionPartnerName":"Batz, Zemlak and O'Reilly","PostCode":90000,"City":"Mingzhong"},
{"DiffsionPartnerId":159,"Siret":85240352289697,"Address":"Vera","AddressNumber":"1","Phone":"1935380473","DiffsionPartnerName":"Klein, Yost and Hermann","PostCode":"445590","City":"Khvorostyanka"},
{"DiffsionPartnerId":160,"Siret":50874653755582,"Address":"Sommers","AddressNumber":"18","Phone":"8843453114","DiffsionPartnerName":"Nolan Inc","PostCode":90000,"City":"Akhfennir"},
{"DiffsionPartnerId":161,"Siret":32820101342440,"Address":"Erie","AddressNumber":"4","Phone":"9486540367","DiffsionPartnerName":"Little-Larson","PostCode":90000,"City":"Bundibugyo"},
{"DiffsionPartnerId":162,"Siret":49653157355466,"Address":"Quincy","AddressNumber":"40","Phone":"7343811815","DiffsionPartnerName":"Kessler, Labadie and Berge","PostCode":90000,"City":"Furong"},
{"DiffsionPartnerId":163,"Siret":23383073417033,"Address":"Mayfield","AddressNumber":"088","Phone":"3721274344","DiffsionPartnerName":"Beatty, Cruickshank and Pfannerstill","PostCode":"735 33","City":"Doubrava"},
{"DiffsionPartnerId":164,"Siret":55303548834735,"Address":"Jana","AddressNumber":"3623","Phone":"9281321235","DiffsionPartnerName":"Lesch-Wolff","PostCode":"460536","City":"Nezhinka"},
{"DiffsionPartnerId":165,"Siret":72542341281066,"Address":"Blackbird","AddressNumber":"31","Phone":"5963070499","DiffsionPartnerName":"Donnelly Group","PostCode":"5470-206","City":"Montalegre"},
{"DiffsionPartnerId":166,"Siret":66159175814733,"Address":"South","AddressNumber":"17","Phone":"2511329294","DiffsionPartnerName":"Erdman, Hackett and Greenfelder","PostCode":90000,"City":"Palla"},
{"DiffsionPartnerId":167,"Siret":28441349228044,"Address":"Monument","AddressNumber":"90","Phone":"7957388465","DiffsionPartnerName":"Vandervort-Hagenes","PostCode":90000,"City":"Valbonë"},
{"DiffsionPartnerId":168,"Siret":83257897278800,"Address":"Novick","AddressNumber":"32","Phone":"2808817029","DiffsionPartnerName":"Lemke, Hilpert and Durgan","PostCode":"547079","City":"El Carmen"},
{"DiffsionPartnerId":169,"Siret":53341463141964,"Address":"Lake View","AddressNumber":"53942","Phone":"5603546611","DiffsionPartnerName":"Dickinson Inc","PostCode":90000,"City":"Xishanzui"},
{"DiffsionPartnerId":170,"Siret":26355593297097,"Address":"Northport","AddressNumber":"812","Phone":"3611816121","DiffsionPartnerName":"Treutel, Thompson and Mertz","PostCode":"8305","City":"Dapdap"},
{"DiffsionPartnerId":171,"Siret":33817267121222,"Address":"Messerschmidt","AddressNumber":"1","Phone":"4624769794","DiffsionPartnerName":"Brakus Group","PostCode":90000,"City":"Kopen"},
{"DiffsionPartnerId":172,"Siret":41911008617044,"Address":"Miller","AddressNumber":"0581","Phone":"9261232143","DiffsionPartnerName":"Schinner-Smith","PostCode":90000,"City":"Harbin"},
{"DiffsionPartnerId":173,"Siret":29311499471307,"Address":"Southridge","AddressNumber":"9","Phone":"2797738404","DiffsionPartnerName":"Schiller-Schulist","PostCode":"2460-402","City":"Póvoa"},
{"DiffsionPartnerId":174,"Siret":35750469240860,"Address":"Cherokee","AddressNumber":"96510","Phone":"1895698368","DiffsionPartnerName":"Feest, Kessler and Towne","PostCode":"06-513","City":"Wieczfnia Kościelna"},
{"DiffsionPartnerId":175,"Siret":70888951407329,"Address":"Transport","AddressNumber":"5","Phone":"3366173290","DiffsionPartnerName":"Rolfson, Kassulke and Ankunding","PostCode":90000,"City":"Jiyang"},
{"DiffsionPartnerId":176,"Siret":23991259484066,"Address":"Morningstar","AddressNumber":"184","Phone":"7419368460","DiffsionPartnerName":"Feeney-Greenholt","PostCode":90000,"City":"Fengchan"},
{"DiffsionPartnerId":177,"Siret":26841448186457,"Address":"Merchant","AddressNumber":"156","Phone":"4698256615","DiffsionPartnerName":"Lueilwitz, Kling and Barton","PostCode":"89200-000","City":"Joinville"},
{"DiffsionPartnerId":178,"Siret":98821275619007,"Address":"Sachs","AddressNumber":"6787","Phone":"2258042177","DiffsionPartnerName":"Barton-Gislason","PostCode":75000,"City":"Ndom"},
{"DiffsionPartnerId":179,"Siret":47323739745116,"Address":"Evergreen","AddressNumber":"92199","Phone":"8118432205","DiffsionPartnerName":"Simonis, Abbott and Blanda","PostCode":75000,"City":"Klevan’"},
{"DiffsionPartnerId":180,"Siret":69567117969931,"Address":"Marcy","AddressNumber":"7","Phone":"5776734247","DiffsionPartnerName":"Conn Group","PostCode":90000,"City":"Longwan"},
{"DiffsionPartnerId":181,"Siret":88013273900347,"Address":"Fieldstone","AddressNumber":"5545","Phone":"3338159152","DiffsionPartnerName":"Von-Weissnat","PostCode":90000,"City":"Fujiayan"},
{"DiffsionPartnerId":182,"Siret":16737151450874,"Address":"Westridge","AddressNumber":"28","Phone":"5064641543","DiffsionPartnerName":"Sawayn, Mayer and Vandervort","PostCode":"55151","City":"Kunjāh"},
{"DiffsionPartnerId":183,"Siret":41357277005043,"Address":"Lake View","AddressNumber":"008","Phone":"8148878860","DiffsionPartnerName":"Balistreri-Ebert","PostCode":90000,"City":"Sumberan"},
{"DiffsionPartnerId":184,"Siret":86480458097970,"Address":"Judy","AddressNumber":"3","Phone":"3645287691","DiffsionPartnerName":"Yundt LLC","PostCode":"58110","City":"Surin"},
{"DiffsionPartnerId":185,"Siret":41407440933644,"Address":"Pearson","AddressNumber":"31","Phone":"8194658108","DiffsionPartnerName":"Brekke and Sons","PostCode":"J0N","City":"Hudson"},
{"DiffsionPartnerId":186,"Siret":27775806823386,"Address":"Emmet","AddressNumber":"3757","Phone":"8492130455","DiffsionPartnerName":"Miller Group","PostCode":90000,"City":"Medan"},
{"DiffsionPartnerId":187,"Siret":22978663618130,"Address":"Drewry","AddressNumber":"25470","Phone":"2778686118","DiffsionPartnerName":"Ernser Inc","PostCode":90000,"City":"Shatoujiao"},
{"DiffsionPartnerId":188,"Siret":33255266376815,"Address":"Eliot","AddressNumber":"76823","Phone":"4869369023","DiffsionPartnerName":"Farrell Inc","PostCode":"368326","City":"Khadzhalmakhi"},
{"DiffsionPartnerId":189,"Siret":47657800275425,"Address":"Fremont","AddressNumber":"862","Phone":"7716095368","DiffsionPartnerName":"Bauch-Corkery","PostCode":90000,"City":"Liutan"},
{"DiffsionPartnerId":190,"Siret":90988181325523,"Address":"Ridge Oak","AddressNumber":"6536","Phone":"5018532505","DiffsionPartnerName":"Hegmann LLC","PostCode":"R3L","City":"Winnipeg"},
{"DiffsionPartnerId":191,"Siret":85941182442667,"Address":"Ridgeview","AddressNumber":"5","Phone":"4245378258","DiffsionPartnerName":"Jacobi, Gutkowski and Pollich","PostCode":90000,"City":"Gunungsubang"},
{"DiffsionPartnerId":192,"Siret":49821567886525,"Address":"Heffernan","AddressNumber":"8","Phone":"3192417711","DiffsionPartnerName":"Kulas LLC","PostCode":90000,"City":"Altunemil"},
{"DiffsionPartnerId":193,"Siret":98569884779349,"Address":"Sugar","AddressNumber":"25","Phone":"5397454306","DiffsionPartnerName":"Zemlak-Wolff","PostCode":"30674","City":"Ipoh"},
{"DiffsionPartnerId":194,"Siret":83621233708944,"Address":"Starling","AddressNumber":"4575","Phone":"4886245075","DiffsionPartnerName":"Barton and Sons","PostCode":90000,"City":"Ţūlkarm"},
{"DiffsionPartnerId":195,"Siret":59539398726684,"Address":"Green","AddressNumber":"91","Phone":"3098118835","DiffsionPartnerName":"Hamill, MacGyver and Walter","PostCode":"1607","City":"Caridad"},
{"DiffsionPartnerId":196,"Siret":37751032744121,"Address":"Merchant","AddressNumber":"626","Phone":"1951255135","DiffsionPartnerName":"Smith and Sons","PostCode":90000,"City":"Mencon"},
{"DiffsionPartnerId":197,"Siret":16242852850553,"Address":"Lunder","AddressNumber":"46943","Phone":"4272690793","DiffsionPartnerName":"Stroman LLC","PostCode":"9714","City":"Ditsaan"},
{"DiffsionPartnerId":198,"Siret":22935160614431,"Address":"Oak","AddressNumber":"22","Phone":"5933715872","DiffsionPartnerName":"Beer, Ward and O'Hara","PostCode":90000,"City":"Douala"},
{"DiffsionPartnerId":199,"Siret":50829201109374,"Address":"Morrow","AddressNumber":"2","Phone":"7083153261","DiffsionPartnerName":"Quigley Inc","PostCode":90000,"City":"Matoupu"},
{"DiffsionPartnerId":200,"Siret":35205148560866,"Address":"Center","AddressNumber":"74","Phone":"8331287464","DiffsionPartnerName":"Schulist-Tillman","PostCode":90000,"City":"Suren"}]